CTC1_L_00238016-03
1 79244U 22341ZY  26037.47803241  .00000000  00000+0  00000-0 0  9994
2 79244  80.0000 180.0000 0000000   0.0000   0.0000 15.59189987    18
CTC1_L_00238016-04
1 79245U 25753JT  26037.47803241  .00000000  00000+0  00000-0 0  9995
2 79245  80.0000 180.0000 0000000   0.0000  90.0000 15.59189987    18
CTC1_L_00238017-01
1 79246U 22246HZ  26037.47803241  .00000000  00000+0  00000-0 0  9990
2 79246  80.0000 192.0000 0000000   0.0000 192.0000 15.59189987    15
CTC1_L_00238017-02
1 79247U 24919DM  26037.47803241  .00000000  00000+0  00000-0 0  9990
2 79247  80.0000 192.0000 0000000   0.0000 282.0000 15.59189987    16
CTC1_L_00238017-03
1 79248U 22604LG  26037.47803241  .00000000  00000+0  00000-0 0  9990
2 79248  80.0000 192.0000 0000000   0.0000  12.0000 15.59189987    18
CTC1_L_00238017-04
1 79249U 22110DZ  26037.47803241  .00000000  00000+0  00000-0 0  9993
2 79249  80.0000 192.0000 0000000   0.0000 102.0000 15.59189987    19
CTC1_L_00238018-01
1 79250U 23563YM  26037.47803241  .00000000  00000+0  00000-0 0  9998
2 79250  80.0000 204.0000 0000000   0.0000 204.0000 15.59189987    18
CTC1_L_00238018-02
1 79251U 25515NH  26037.47803241  .00000000  00000+0  00000-0 0  9998
2 79251  80.0000 204.0000 0000000   0.0000 294.0000 15.59189987    18
CTC1_L_00238018-03
1 79252U 26169MN  26037.47803241  .00000000  00000+0  00000-0 0  9995
2 79252  80.0000 204.0000 0000000   0.0000  24.0000 15.59189987    10
CTC1_L_00238018-04
1 79253U 24441LA  26037.47803241  .00000000  00000+0  00000-0 0  9997
2 79253  80.0000 204.0000 0000000   0.0000 114.0000 15.59189987    11
CTC1_L_00238019-01
1 79254U 22500ZM  26037.47803241  .00000000  00000+0  00000-0 0  9992
2 79254  80.0000 216.0000 0000000   0.0000 216.0000 15.59189987    18
CTC1_L_00238019-02
1 79255U 25668NW  26037.47803241  .00000000  00000+0  00000-0 0  9991
2 79255  80.0000 216.0000 0000000   0.0000 306.0000 15.59189987    19
CTC1_L_00238019-03
1 79256U 25735FZ  26037.47803241  .00000000  00000+0  00000-0 0  9997
2 79256  80.0000 216.0000 0000000   0.0000  36.0000 15.59189987    10
CTC1_L_00238019-04
1 79257U 24530EB  26037.47803241  .00000000  00000+0  00000-0 0  9990
2 79257  80.0000 216.0000 0000000   0.0000 126.0000 15.59189987    11
CTC1_L_00238020-01
1 79258U 26228KR  26037.47803241  .00000000  00000+0  00000-0 0  9997
2 79258  80.0000 228.0000 0000000   0.0000 228.0000 15.59189987    18
CTC1_L_00238020-02
1 79259U 23056VQ  26037.47803241  .00000000  00000+0  00000-0 0  9994
2 79259  80.0000 228.0000 0000000   0.0000 318.0000 15.59189987    19
CTC1_L_00238020-03
1 79260U 22802RJ  26037.47803241  .00000000  00000+0  00000-0 0  9994
2 79260  80.0000 228.0000 0000000   0.0000  48.0000 15.59189987    11
CTC1_L_00238020-04
1 79261U 26784YR  26037.47803241  .00000000  00000+0  00000-0 0  9998
2 79261  80.0000 228.0000 0000000   0.0000 138.0000 15.59189987    12
CTC1_L_00238021-01
1 79262U 23622MO  26037.47803241  .00000000  00000+0  00000-0 0  9997
2 79262  80.0000 240.0000 0000000   0.0000 240.0000 15.59189987    11
CTC1_L_00238021-02
1 79263U 25505IC  26037.47803241  .00000000  00000+0  00000-0 0  9990
2 79263  80.0000 240.0000 0000000   0.0000 330.0000 15.59189987    12
CTC1_L_00238021-03
1 79264U 23467RF  26037.47803241  .00000000  00000+0  00000-0 0  9996
2 79264  80.0000 240.0000 0000000   0.0000  60.0000 15.59189987    13
CTC1_L_00238021-04
1 79265U 24386BH  26037.47803241  .00000000  00000+0  00000-0 0  9998
2 79265  80.0000 240.0000 0000000   0.0000 150.0000 15.59189987    14
CTC1_L_00238022-01
1 79266U 24045QI  26037.47803241  .00000000  00000+0  00000-0 0  9991
2 79266  80.0000 252.0000 0000000   0.0000 252.0000 15.59189987    11
CTC1_L_00238022-02
1 79267U 25983Q   26037.47803241  .00000000  00000+0  00000-0 0  9994
2 79267  80.0000 252.0000 0000000   0.0000 342.0000 15.59189987    12
CTC1_L_00238022-03
1 79268U 22584EC  26037.47803241  .00000000  00000+0  00000-0 0  9999
2 79268  80.0000 252.0000 0000000   0.0000  72.0000 15.59189987    13
CTC1_L_00238022-04
1 79269U 23928ZY  26037.47803241  .00000000  00000+0  00000-0 0  9993
2 79269  80.0000 252.0000 0000000   0.0000 162.0000 15.59189987    14
CTC1_L_00238023-01
1 79270U 25099F   26037.47803241  .00000000  00000+0  00000-0 0  9996
2 79270  80.0000 264.0000 0000000   0.0000 264.0000 15.59189987    12
CTC1_L_00238023-02
1 79271U 23038OR  26037.47803241  .00000000  00000+0  00000-0 0  9998
2 79271  80.0000 264.0000 0000000   0.0000 354.0000 15.59189987    13
CTC1_L_00238023-03
1 79272U 24865BT  26037.47803241  .00000000  00000+0  00000-0 0  9998
2 79272  80.0000 264.0000 0000000   0.0000  84.0000 15.59189987    14
CTC1_L_00238023-04
1 79273U 22909IP  26037.47803241  .00000000  00000+0  00000-0 0  9996
2 79273  80.0000 264.0000 0000000   0.0000 174.0000 15.59189987    15
CTC1_L_00238024-01
1 79274U 23905TO  26037.47803241  .00000000  00000+0  00000-0 0  9994
2 79274  80.0000 276.0000 0000000   0.0000 276.0000 15.59189987    12
CTC1_L_00238024-02
1 79275U 26201NX  26037.47803241  .00000000  00000+0  00000-0 0  9997
2 79275  80.0000 276.0000 0000000   0.0000   6.0000 15.59189987    14
CTC1_L_00238024-03
1 79276U 22587SV  26037.47803241  .00000000  00000+0  00000-0 0  9991
2 79276  80.0000 276.0000 0000000   0.0000  96.0000 15.59189987    14
CTC1_L_00238024-04
1 79277U 22975TR  26037.47803241  .00000000  00000+0  00000-0 0  9993
2 79277  80.0000 276.0000 0000000   0.0000 186.0000 15.59189987    15
CTC1_L_00238025-01
1 79278U 23879NJ  26037.47803241  .00000000  00000+0  00000-0 0  9998
2 79278  80.0000 288.0000 0000000   0.0000 288.0000 15.59189987    12
CTC1_L_00238025-02
1 79279U 26492JG  26037.47803241  .00000000  00000+0  00000-0 0  9993
2 79279  80.0000 288.0000 0000000   0.0000  18.0000 15.59189987    14
CTC1_L_00238025-03
1 79280U 24342TU  26037.47803241  .00000000  00000+0  00000-0 0  9997
2 79280  80.0000 288.0000 0000000   0.0000 108.0000 15.59189987    16
CTC1_L_00238025-04
1 79281U 25611NB  26037.47803241  .00000000  00000+0  00000-0 0  9998
2 79281  80.0000 288.0000 0000000   0.0000 198.0000 15.59189987    16
CTC1_L_00238026-01
1 79282U 22284OE  26037.47803241  .00000000  00000+0  00000-0 0  9992
2 79282  80.0000 300.0000 0000000   0.0000 300.0000 15.59189987    17
CTC1_L_00238026-02
1 79283U 22980YH  26037.47803241  .00000000  00000+0  00000-0 0  9996
2 79283  80.0000 300.0000 0000000   0.0000  30.0000 15.59189987    18
CTC1_L_00238026-03
1 79284U 25496PK  26037.47803241  .00000000  00000+0  00000-0 0  9992
2 79284  80.0000 300.0000 0000000   0.0000 120.0000 15.59189987    19
CTC1_L_00238026-04
1 79285U 25673UR  26037.47803241  .00000000  00000+0  00000-0 0  9990
2 79285  80.0000 300.0000 0000000   0.0000 210.0000 15.59189987    10
CTC1_L_00238027-01
1 79286U 26500UP  26037.47803241  .00000000  00000+0  00000-0 0  9991
2 79286  80.0000 312.0000 0000000   0.0000 312.0000 15.59189987    17
CTC1_L_00238027-02
1 79287U 23947JE  26037.47803241  .00000000  00000+0  00000-0 0  9994
2 79287  80.0000 312.0000 0000000   0.0000  42.0000 15.59189987    18
CTC1_L_00238027-03
1 79288U 22860H   26037.47803241  .00000000  00000+0  00000-0 0  9998
2 79288  80.0000 312.0000 0000000   0.0000 132.0000 15.59189987    19
CTC1_L_00238027-04
1 79289U 25656TN  26037.47803241  .00000000  00000+0  00000-0 0  9995
2 79289  80.0000 312.0000 0000000   0.0000 222.0000 15.59189987    10
CTC1_L_00238028-01
1 79290U 26967IE  26037.47803241  .00000000  00000+0  00000-0 0  9993
2 79290  80.0000 324.0000 0000000   0.0000 324.0000 15.59189987    18
CTC1_L_00238028-02
1 79291U 22818SB  26037.47803241  .00000000  00000+0  00000-0 0  9995
2 79291  80.0000 324.0000 0000000   0.0000  54.0000 15.59189987    19
CTC1_L_00238028-03
1 79292U 22087TT  26037.47803241  .00000000  00000+0  00000-0 0  9994
2 79292  80.0000 324.0000 0000000   0.0000 144.0000 15.59189987    10
CTC1_L_00238028-04
1 79293U 26136DN  26037.47803241  .00000000  00000+0  00000-0 0  9994
2 79293  80.0000 324.0000 0000000   0.0000 234.0000 15.59189987    11
CTC1_L_00238029-01
1 79294U 22717KK  26037.47803241  .00000000  00000+0  00000-0 0  9996
2 79294  80.0000 336.0000 0000000   0.0000 336.0000 15.59189987    18
CTC1_L_00238029-02
1 79295U 23469PH  26037.47803241  .00000000  00000+0  00000-0 0  9992
2 79295  80.0000 336.0000 0000000   0.0000  66.0000 15.59189987    19
CTC1_L_00238029-03
1 79296U 23827RP  26037.47803241  .00000000  00000+0  00000-0 0  9991
2 79296  80.0000 336.0000 0000000   0.0000 156.0000 15.59189987    10
CTC1_L_00238029-04
1 79297U 22874XC  26037.47803241  .00000000  00000+0  00000-0 0  9993
2 79297  80.0000 336.0000 0000000   0.0000 246.0000 15.59189987    11
CTC1_L_00238030-01
1 79298U 22613KI  26037.47803241  .00000000  00000+0  00000-0 0  9995
2 79298  80.0000 348.0000 0000000   0.0000 348.0000 15.59189987    18
CTC1_L_00238030-02
1 79299U 24340PO  26037.47803241  .00000000  00000+0  00000-0 0  9995
2 79299  80.0000 348.0000 0000000   0.0000  78.0000 15.59189987    19
CTC1_L_00238030-03
1 79300U 22152GW  26037.47803241  .00000000  00000+0  00000-0 0  9997
2 79300  80.0000 348.0000 0000000   0.0000 168.0000 15.59189987    12
CTC1_L_00238030-04
1 79301U 23307UR  26037.47803241  .00000000  00000+0  00000-0 0  9991
2 79301  80.0000 348.0000 0000000   0.0000 258.0000 15.59189987    13
